{
  "type": "FeatureCollection",
  "features": [
    {
      "type": "Feature",
      "properties": {
        "norad_id": 66660,
        "name": "K-HERO",
        "group": "last-30-days",
        "lat": 16.600929527120705,
        "lon": -83.28642040478823,
        "alt_km": 592.9426086791827,
        "timestamp": "2025-12-17T21:39:44.491429+00:00",
        "meta_object_name": "K-HERO",
        "meta_object_id": "2025-274L",
        "meta_epoch": "2025-12-17T13:32:41.752032",
        "meta_mean_motion": 14.92989761,
        "meta_eccentricity": 0.00125054,
        "meta_inclination": 97.7401,
        "meta_ra_of_asc_node": 278.7048,
        "meta_arg_of_pericenter": 262.9512,
        "meta_mean_anomaly": 97.0285,
        "meta_ephemeris_type": 0,
        "meta_classification_type": "U",
        "meta_norad_cat_id": 66660,
        "meta_element_set_no": 999,
        "meta_rev_at_epoch": 312,
        "meta_bstar": 0.00024878267,
        "meta_mean_motion_dot": 2.532e-05,
        "meta_mean_motion_ddot": 0,
        "tle_line1": "1 66660U 25274L   25351.56437213  .00002532  00000+0  24878-3 0  9994",
        "tle_line2": "2 66660  97.7401 278.7048 0012505 262.9512  97.0285 14.92989761  3123"
      },
      "geometry": {
        "type": "Point",
        "coordinates": [
          -83.28642040478823,
          16.600929527120705
        ]
      }
    },
    {
      "type": "Feature",
      "properties": {
        "norad_id": 66661,
        "name": "SNUGLITE-III",
        "group": "last-30-days",
        "lat": 27.612702320941537,
        "lon": -85.0382157140298,
        "alt_km": 592.2930881898692,
        "timestamp": "2025-12-17T21:39:44.491438+00:00",
        "meta_object_name": "SNUGLITE-III",
        "meta_object_id": "2025-274M",
        "meta_epoch": "2025-12-17T08:40:14.996352",
        "meta_mean_motion": 14.93123648,
        "meta_eccentricity": 0.00131077,
        "meta_inclination": 97.74,
        "meta_ra_of_asc_node": 278.5088,
        "meta_arg_of_pericenter": 265.0248,
        "meta_mean_anomaly": 94.9476,
        "meta_ephemeris_type": 0,
        "meta_classification_type": "U",
        "meta_norad_cat_id": 66661,
        "meta_element_set_no": 999,
        "meta_rev_at_epoch": 309,
        "meta_bstar": 0.00023340151,
        "meta_mean_motion_dot": 2.38e-05,
        "meta_mean_motion_ddot": 0,
        "tle_line1": "1 66661U 25274M   25351.36128468  .00002380  00000+0  23340-3 0  9996",
        "tle_line2": "2 66661  97.7400 278.5088 0013107 265.0248  94.9476 14.93123648  3093"
      },
      "geometry": {
        "type": "Point",
        "coordinates": [
          -85.0382157140298,
          27.612702320941537
        ]
      }
    },
    {
      "type": "Feature",
      "properties": {
        "norad_id": 66662,
        "name": "2025-274N",
        "group": "last-30-days",
        "lat": 31.921659271788577,
        "lon": -85.81696648984637,
        "alt_km": 592.2260785003646,
        "timestamp": "2025-12-17T21:39:44.491449+00:00",
        "meta_object_name": "2025-274N",
        "meta_object_id": "2025-274N",
        "meta_epoch": "2025-12-17T08:39:06.485472",
        "meta_mean_motion": 14.93177819,
        "meta_eccentricity": 0.00135319,
        "meta_inclination": 97.74,
        "meta_ra_of_asc_node": 278.5101,
        "meta_arg_of_pericenter": 264.6128,
        "meta_mean_anomaly": 95.3548,
        "meta_ephemeris_type": 0,
        "meta_classification_type": "U",
        "meta_norad_cat_id": 66662,
        "meta_element_set_no": 999,
        "meta_rev_at_epoch": 309,
        "meta_bstar": 0.0002436366,
        "meta_mean_motion_dot": 2.491e-05,
        "meta_mean_motion_ddot": 0,
        "tle_line1": "1 66662U 25274N   25351.36049173  .00002491  00000+0  24364-3 0  9992",
        "tle_line2": "2 66662  97.7400 278.5101 0013531 264.6128  95.3548 14.93177819  3097"
      },
      "geometry": {
        "type": "Point",
        "coordinates": [
          -85.81696648984637,
          31.921659271788577
        ]
      }
    },
    {
      "type": "Feature",
      "properties": {
        "norad_id": 66663,
        "name": "KSLV-II R/B",
        "group": "last-30-days",
        "lat": -7.2509396367582095,
        "lon": -79.8118230914291,
        "alt_km": 554.2830401448609,
        "timestamp": "2025-12-17T21:39:44.491458+00:00",
        "meta_object_name": "KSLV-II R/B",
        "meta_object_id": "2025-274P",
        "meta_epoch": "2025-12-17T08:51:52.192512",
        "meta_mean_motion": 14.97384711,
        "meta_eccentricity": 0.00559618,
        "meta_inclination": 97.7434,
        "meta_ra_of_asc_node": 278.6678,
        "meta_arg_of_pericenter": 303.5885,
        "meta_mean_anomaly": 56.0002,
        "meta_ephemeris_type": 0,
        "meta_classification_type": "U",
        "meta_norad_cat_id": 66663,
        "meta_element_set_no": 999,
        "meta_rev_at_epoch": 310,
        "meta_bstar": 0.00051445081,
        "meta_mean_motion_dot": 6.112e-05,
        "meta_mean_motion_ddot": 0,
        "tle_line1": "1 66663U 25274P   25351.36935408  .00006112  00000+0  51445-3 0  9992",
        "tle_line2": "2 66663  97.7434 278.6678 0055961 303.5885  56.0002 14.97384711  3107"
      },
      "geometry": {
        "type": "Point",
        "coordinates": [
          -79.8118230914291,
          -7.2509396367582095
        ]
      }
    },
    {
      "type": "Feature",
      "properties": {
        "norad_id": 66664,
        "name": "SOYUZ-MS 28",
        "group": "last-30-days",
        "lat": 36.43410484788744,
        "lon": 152.70342964871904,
        "alt_km": 414.71184766015267,
        "timestamp": "2025-12-17T21:39:44.491468+00:00",
        "meta_object_name": "SOYUZ-MS 28",
        "meta_object_id": "2025-275A",
        "meta_epoch": "2025-12-17T13:42:43.375968",
        "meta_mean_motion": 15.49636687,
        "meta_eccentricity": 0.00031828,
        "meta_inclination": 51.631,
        "meta_ra_of_asc_node": 118.5527,
        "meta_arg_of_pericenter": 262.6214,
        "meta_mean_anomaly": 97.4413,
        "meta_ephemeris_type": 0,
        "meta_classification_type": "U",
        "meta_norad_cat_id": 66664,
        "meta_element_set_no": 999,
        "meta_rev_at_epoch": 128,
        "meta_bstar": 0.00014273627,
        "meta_mean_motion_dot": 7.597e-05,
        "meta_mean_motion_ddot": 0,
        "tle_line1": "1 66664U 25275A   25351.57133537  .00007597  00000+0  14274-3 0  9997",
        "tle_line2": "2 66664  51.6310 118.5527 0003182 262.6214  97.4413 15.49636687  1286"
      },
      "geometry": {
        "type": "Point",
        "coordinates": [
          152.70342964871904,
          36.43410484788744
        ]
      }
    },
    {
      "type": "Feature",
      "properties": {
        "norad_id": 66791,
        "name": "STARLINK-35867",
        "group": "last-30-days",
        "lat": -42.96525038683225,
        "lon": 132.2847789918025,
        "alt_km": 351.4844987587958,
        "timestamp": "2025-12-17T21:39:44.491477+00:00",
        "meta_object_name": "STARLINK-35867",
        "meta_object_id": "2025-278A",
        "meta_epoch": "2025-12-17T14:00:03.000384",
        "meta_mean_motion": 15.74771499,
        "meta_eccentricity": 0.00011652,
        "meta_inclination": 42.9988,
        "meta_ra_of_asc_node": 222.511,
        "meta_arg_of_pericenter": 253.8379,
        "meta_mean_anomaly": 6.1952,
        "meta_ephemeris_type": 0,
        "meta_classification_type": "U",
        "meta_norad_cat_id": 66791,
        "meta_element_set_no": 999,
        "meta_rev_at_epoch": 373,
        "meta_bstar": -0.014122228,
        "meta_mean_motion_dot": -0.01868915,
        "meta_mean_motion_ddot": 0,
        "tle_line1": "1 66791U 25278A   25351.58336806 -.01868915  00000+0 -14122-1 0  9998",
        "tle_line2": "2 66791  42.9988 222.5110 0001165 253.8379   6.1952 15.74771499  3734"
      },
      "geometry": {
        "type": "Point",
        "coordinates": [
          132.2847789918025,
          -42.96525038683225
        ]
      }
    },
    {
      "type": "Feature",
      "properties": {
        "norad_id": 66792,
        "name": "STARLINK-35990",
        "group": "last-30-days",
        "lat": -42.89717850233555,
        "lon": 134.8835492873826,
        "alt_km": 351.1164851725989,
        "timestamp": "2025-12-17T21:39:44.491488+00:00",
        "meta_object_name": "STARLINK-35990",
        "meta_object_id": "2025-278B",
        "meta_epoch": "2025-12-17T14:00:03.000384",
        "meta_mean_motion": 15.74779533,
        "meta_eccentricity": 0.00016289,
        "meta_inclination": 42.999,
        "meta_ra_of_asc_node": 222.5066,
        "meta_arg_of_pericenter": 269.0536,
        "meta_mean_anomaly": 352.8891,
        "meta_ephemeris_type": 0,
        "meta_classification_type": "U",
        "meta_norad_cat_id": 66792,
        "meta_element_set_no": 999,
        "meta_rev_at_epoch": 373,
        "meta_bstar": -0.014196101,
        "meta_mean_motion_dot": -0.01878378,
        "meta_mean_motion_ddot": 0,
        "tle_line1": "1 66792U 25278B   25351.58336806 -.01878378  00000+0 -14196-1 0  9994",
        "tle_line2": "2 66792  42.9990 222.5066 0001628 269.0536 352.8891 15.74779533  3736"
      },
      "geometry": {
        "type": "Point",
        "coordinates": [
          134.8835492873826,
          -42.89717850233555
        ]
      }
    }
  ]
}